{
  "type": "FeatureCollection",
  "features": [
    {
      "type": "Feature",
      "properties": {
        "norad_id": 24946,
        "name": "IRIDIUM 33",
        "group": "iridium-33-debris",
        "lat": -10.709342081043049,
        "lon": 69.42486854130921,
        "alt_km": 782.4211784845311,
        "timestamp": "2025-12-08T05:48:09.418376+00:00",
        "meta_object_name": "IRIDIUM 33",
        "meta_object_id": "1997-051C",
        "meta_epoch": "2025-12-07T23:09:30.826368",
        "meta_mean_motion": 14.35031792,
        "meta_eccentricity": 0.00065204,
        "meta_inclination": 86.387,
        "meta_ra_of_asc_node": 70.2257,
        "meta_arg_of_pericenter": 218.2008,
        "meta_mean_anomaly": 141.8727,
        "meta_ephemeris_type": 0,
        "meta_classification_type": "U",
        "meta_norad_cat_id": 24946,
        "meta_element_set_no": 999,
        "meta_rev_at_epoch": 47766,
        "meta_bstar": 0.00020031832,
        "meta_mean_motion_dot": 5.9e-06,
        "meta_mean_motion_ddot": 0,
        "tle_line1": "1 24946U 97051C   25341.96494012  .00000590  00000+0  20032-3 0  9990",
        "tle_line2": "2 24946  86.3870  70.2257 0006520 218.2008 141.8727 14.35031792477661"
      },
      "geometry": {
        "type": "Point",
        "coordinates": [
          69.42486854130921,
          -10.709342081043049
        ]
      }
    },
    {
      "type": "Feature",
      "properties": {
        "norad_id": 33773,
        "name": "IRIDIUM 33 DEB",
        "group": "iridium-33-debris",
        "lat": 6.3242468439085915,
        "lon": -117.90401392274111,
        "alt_km": 741.6818276303848,
        "timestamp": "2025-12-08T05:48:09.418416+00:00",
        "meta_object_name": "IRIDIUM 33 DEB",
        "meta_object_id": "1997-051L",
        "meta_epoch": "2025-12-07T17:21:12.573216",
        "meta_mean_motion": 14.43241483,
        "meta_eccentricity": 0.00120237,
        "meta_inclination": 86.4015,
        "meta_ra_of_asc_node": 62.7153,
        "meta_arg_of_pericenter": 161.443,
        "meta_mean_anomaly": 198.7212,
        "meta_ephemeris_type": 0,
        "meta_classification_type": "U",
        "meta_norad_cat_id": 33773,
        "meta_element_set_no": 999,
        "meta_rev_at_epoch": 88275,
        "meta_bstar": 0.00062122502,
        "meta_mean_motion_dot": 2.11e-05,
        "meta_mean_motion_ddot": 0,
        "tle_line1": "1 33773U 97051L   25341.72306219  .00002110  00000+0  62123-3 0  9990",
        "tle_line2": "2 33773  86.4015  62.7153 0012023 161.4430 198.7212 14.43241483882754"
      },
      "geometry": {
        "type": "Point",
        "coordinates": [
          -117.90401392274111,
          6.3242468439085915
        ]
      }
    },
    {
      "type": "Feature",
      "properties": {
        "norad_id": 33775,
        "name": "IRIDIUM 33 DEB",
        "group": "iridium-33-debris",
        "lat": -73.57382618643459,
        "lon": 39.01844334951317,
        "alt_km": 765.633645543654,
        "timestamp": "2025-12-08T05:48:09.418431+00:00",
        "meta_object_name": "IRIDIUM 33 DEB",
        "meta_object_id": "1997-051N",
        "meta_epoch": "2025-12-07T22:38:03.370848",
        "meta_mean_motion": 14.41452411,
        "meta_eccentricity": 0.00137836,
        "meta_inclination": 86.3641,
        "meta_ra_of_asc_node": 51.6013,
        "meta_arg_of_pericenter": 169.5505,
        "meta_mean_anomaly": 7.4355,
        "meta_ephemeris_type": 0,
        "meta_classification_type": "U",
        "meta_norad_cat_id": 33775,
        "meta_element_set_no": 999,
        "meta_rev_at_epoch": 88071,
        "meta_bstar": 0.00051363714,
        "meta_mean_motion_dot": 1.687e-05,
        "meta_mean_motion_ddot": 0,
        "tle_line1": "1 33775U 97051N   25341.94309457  .00001687  00000+0  51364-3 0  9996",
        "tle_line2": "2 33775  86.3641  51.6013 0013783 169.5505   7.4355 14.41452411880719"
      },
      "geometry": {
        "type": "Point",
        "coordinates": [
          39.01844334951317,
          -73.57382618643459
        ]
      }
    },
    {
      "type": "Feature",
      "properties": {
        "norad_id": 33776,
        "name": "IRIDIUM 33 DEB",
        "group": "iridium-33-debris",
        "lat": -27.94436506714241,
        "lon": -95.42371563481495,
        "alt_km": 760.4250244845771,
        "timestamp": "2025-12-08T05:48:09.418445+00:00",
        "meta_object_name": "IRIDIUM 33 DEB",
        "meta_object_id": "1997-051P",
        "meta_epoch": "2025-12-07T19:21:28.874016",
        "meta_mean_motion": 14.38221316,
        "meta_eccentricity": 0.00137825,
        "meta_inclination": 86.4037,
        "meta_ra_of_asc_node": 82.8472,
        "meta_arg_of_pericenter": 207.1216,
        "meta_mean_anomaly": 268.948,
        "meta_ephemeris_type": 0,
        "meta_classification_type": "U",
        "meta_norad_cat_id": 33776,
        "meta_element_set_no": 999,
        "meta_rev_at_epoch": 88011,
        "meta_bstar": 0.00060401698,
        "meta_mean_motion_dot": 1.855e-05,
        "meta_mean_motion_ddot": 0,
        "tle_line1": "1 33776U 97051P   25341.80658419  .00001855  00000+0  60402-3 0  9997",
        "tle_line2": "2 33776  86.4037  82.8472 0013782 207.1216 268.9480 14.38221316880113"
      },
      "geometry": {
        "type": "Point",
        "coordinates": [
          -95.42371563481495,
          -27.94436506714241
        ]
      }
    },
    {
      "type": "Feature",
      "properties": {
        "norad_id": 33777,
        "name": "IRIDIUM 33 DEB",
        "group": "iridium-33-debris",
        "lat": 74.46949832464045,
        "lon": 50.333432671691405,
        "alt_km": 704.0084127837481,
        "timestamp": "2025-12-08T05:48:09.418458+00:00",
        "meta_object_name": "IRIDIUM 33 DEB",
        "meta_object_id": "1997-051Q",
        "meta_epoch": "2025-12-07T21:12:36.232416",
        "meta_mean_motion": 14.55558752,
        "meta_eccentricity": 0.00051039,
        "meta_inclination": 86.3785,
        "meta_ra_of_asc_node": 37.3156,
        "meta_arg_of_pericenter": 272.0634,
        "meta_mean_anomaly": 87.9989,
        "meta_ephemeris_type": 0,
        "meta_classification_type": "U",
        "meta_norad_cat_id": 33777,
        "meta_element_set_no": 999,
        "meta_rev_at_epoch": 88463,
        "meta_bstar": 0.0012244585,
        "meta_mean_motion_dot": 5.356e-05,
        "meta_mean_motion_ddot": 0,
        "tle_line1": "1 33777U 97051Q   25341.88375269  .00005356  00000+0  12245-2 0  9996",
        "tle_line2": "2 33777  86.3785  37.3156 0005103 272.0634  87.9989 14.55558752884630"
      },
      "geometry": {
        "type": "Point",
        "coordinates": [
          50.333432671691405,
          74.46949832464045
        ]
      }
    },
    {
      "type": "Feature",
      "properties": {
        "norad_id": 33850,
        "name": "IRIDIUM 33 DEB",
        "group": "iridium-33-debris",
        "lat": -75.56209685441729,
        "lon": -133.4985936336237,
        "alt_km": 757.5680301339517,
        "timestamp": "2025-12-08T05:48:09.418470+00:00",
        "meta_object_name": "IRIDIUM 33 DEB",
        "meta_object_id": "1997-051T",
        "meta_epoch": "2025-12-07T22:30:46.056384",
        "meta_mean_motion": 14.42131597,
        "meta_eccentricity": 0.00117503,
        "meta_inclination": 86.3419,
        "meta_ra_of_asc_node": 32.2443,
        "meta_arg_of_pericenter": 175.9292,
        "meta_mean_anomaly": 304.0004,
        "meta_ephemeris_type": 0,
        "meta_classification_type": "U",
        "meta_norad_cat_id": 33850,
        "meta_element_set_no": 999,
        "meta_rev_at_epoch": 88083,
        "meta_bstar": 0.00051754302,
        "meta_mean_motion_dot": 1.722e-05,
        "meta_mean_motion_ddot": 0,
        "tle_line1": "1 33850U 97051T   25341.93803306  .00001722  00000+0  51754-3 0  9994",
        "tle_line2": "2 33850  86.3419  32.2443 0011750 175.9292 304.0004 14.42131597880834"
      },
      "geometry": {
        "type": "Point",
        "coordinates": [
          -133.4985936336237,
          -75.56209685441729
        ]
      }
    },
    {
      "type": "Feature",
      "properties": {
        "norad_id": 33853,
        "name": "IRIDIUM 33 DEB",
        "group": "iridium-33-debris",
        "lat": -75.47296266828114,
        "lon": -172.54821139681792,
        "alt_km": 754.9454429219732,
        "timestamp": "2025-12-08T05:48:09.418483+00:00",
        "meta_object_name": "IRIDIUM 33 DEB",
        "meta_object_id": "1997-051W",
        "meta_epoch": "2025-12-07T08:17:07.255968",
        "meta_mean_motion": 13.99011788,
        "meta_eccentricity": 0.0206843,
        "meta_inclination": 85.9996,
        "meta_ra_of_asc_node": 352.177,
        "meta_arg_of_pericenter": 252.5093,
        "meta_mean_anomaly": 170.527,
        "meta_ephemeris_type": 0,
        "meta_classification_type": "U",
        "meta_norad_cat_id": 33853,
        "meta_element_set_no": 999,
        "meta_rev_at_epoch": 85270,
        "meta_bstar": 0.0032855216,
        "meta_mean_motion_dot": 5.719e-05,
        "meta_mean_motion_ddot": 0,
        "tle_line1": "1 33853U 97051W   25341.34522287  .00005719  00000+0  32855-2 0  9998",
        "tle_line2": "2 33853  85.9996 352.1770 0206843 252.5093 170.5270 13.99011788852705"
      },
      "geometry": {
        "type": "Point",
        "coordinates": [
          -172.54821139681792,
          -75.47296266828114
        ]
      }
    }
  ]
}